IRIDIUM 155             
1 43573U 18061E   21140.15224735  .00000095  00000-0  26909-4 0  9999
2 43573  86.3939 111.5570 0001845  79.0482 281.0921 14.34218850147629
IRIDIUM 154             
1 43574U 18061F   21140.41230001  .00000099  00000-0  28412-4 0  9997
2 43574  86.3943 111.4936 0002525  85.9384 274.2101 14.34218579147704
IRIDIUM 163             
1 43575U 18061G   21139.90488931  .00000099  00000-0  28214-4 0  9997
2 43575  86.3940 111.6775 0002344 100.5073 259.6387 14.34218436147607
IRIDIUM 156             
1 43576U 18061H   21140.15858885  .00000182  00000-0  57941-4 0  9998
2 43576  86.3942 111.5762 0002055  93.7140 266.4291 14.34215702147627
IRIDIUM 164             
1 43577U 18061J   21139.86049366  .00000106  00000-0  30924-4 0  9999
2 43577  86.3941 111.7132 0002488  89.8366 270.3115 14.34216913147631
IRIDIUM 159             
1 43578U 18061K   21140.17762470  .00000103  00000-0  29655-4 0  9990
2 43578  86.3940 111.5563 0002437  86.9144 273.2330 14.34216563147646
IRIDIUM 180             
1 43922U 19002A   21139.82828550  .00000098  00000-0  27870-4 0  9991
2 43922  86.4003  48.5341 0003125  92.3020 267.8534 14.34217412123207
IRIDIUM 176             
1 43923U 19002B   21140.13587730  .00000200  00000-0  27843-4 0  9995
2 43923  86.6137  48.4377 0002551  84.7470 275.4038 14.72252672126466
IRIDIUM 168             
1 43924U 19002C   21140.44985916  .00000095  00000-0  26959-4 0  9997
2 43924  86.4005  48.2993 0002480  84.3216 275.8263 14.34218645123276
IRIDIUM 173             
1 43925U 19002D   21140.43716564  .00000094  00000-0  26474-4 0  9999
2 43925  86.4002  48.2689 0002389  85.6327 274.5141 14.34217225123264
IRIDIUM 169             
1 43926U 19002E   21140.10409267  .00000098  00000-0  25404-4 0  9999
2 43926  86.4228  80.0085 0004351 352.6352   7.4782 14.38605493123665
IRIDIUM 172             
1 43927U 19002F   21139.80291076  .00000099  00000-0  28270-4 0  9997
2 43927  86.4002  48.5360 0002475  86.2364 273.9115 14.34218987123179
IRIDIUM 175             
1 43928U 19002G   21139.99376917  .00000190  00000-0  26196-4 0  9993
2 43928  86.6121  48.3226 0002414 101.3410 258.8078 14.72257676126439
IRIDIUM 171             
1 43929U 19002H   21139.78388496  .00000088  00000-0  24518-4 0  9998
2 43929  86.4012  48.6443 0002452  83.6444 276.5031 14.34217492123165
IRIDIUM 170             
1 43930U 19002J   21140.14203635  .00000203  00000-0  28248-4 0  9996
2 43930  86.6137  48.4414 0002653  89.2666 270.8855 14.72252253126478
IRIDIUM 167             
1 43931U 19002K   21139.84732842  .00000096  00000-0  27063-4 0  9993
2 43931  86.4004  48.5237 0002930  89.2171 270.9361 14.34216882123176
